*******************************************************************************
Ephemeris / WWW_USER Mon Mar 10 14:46:47 2025 Pasadena, USA      / Horizons    
*******************************************************************************
Target body name: (2018 RC)                       {source: JPL#21}
Center body name: Earth (399)                     {source: DE441}
Center-site name: Gemini South Obs., Cerro Pachon
*******************************************************************************
Start time      : A.D. 2018-Aug-16 22:27:00.0000 UT      
Stop  time      : A.D. 2018-Aug-17 11:06:00.0000 UT      
Step-size       : 1 minutes
*******************************************************************************
Target pole/equ : undefined
Target radii    : undefined                                                    
Center geodetic : 289.2634, -30.2406227, 2.71233  {E-lon(deg),Lat(deg),Alt(km)}
Center cylindric: 289.2634,5517.21435,-3194.81213 {E-lon(deg),Dxy(km),Dz(km)}
Center pole/equ : ITRF93                          {East-longitude positive}
Center radii    : 6378.137, 6378.137, 6356.752 km {Equator_a, b, pole_c}       
Target primary  : Sun
Vis. interferer : MOON (R_eq= 1737.400) km        {source: DE441}
Rel. light bend : Sun                             {source: DE441}
Rel. lght bnd GM: 1.3271E+11 km^3/s^2                                          
Small-body perts: Yes                             {source: SB441-N16}
Atmos refraction: NO (AIRLESS)
RA format       : HMS
Time format     : CAL 
Calendar mode   : Mixed Julian/Gregorian
RTS-only print  : NO       
EOP file        : eop.250307.p250603                                           
EOP coverage    : DATA-BASED 1962-JAN-20 TO 2025-MAR-07. PREDICTS-> 2025-JUN-02
Units conversion: 1 au= 149597870.700 km, c= 299792.458 km/s, 1 day= 86400.0 s 
Table cut-offs 1: Elevation (-90.0deg=NO ),Airmass (>38.000=NO), Daylight (YES)
Table cut-offs 2: Solar elongation (  0.0,180.0=NO ),Local Hour Angle( 0.0=NO )
Table cut-offs 3: RA/DEC angular rate (     0.0=NO )                           
*******************************************************************************
Initial IAU76/J2000 heliocentric ecliptic osculating elements (au, days, deg.):
  EPOCH=  2458369.5 ! 2018-Sep-08.00 (TDB)         Residual RMS= .84866        
   EC= .2426621660028976   QR= .647471518312811    TP= 2458473.8617576878      
   OM= 346.8893436915528   W=  145.8737085184167   IN= 1.612045057594462       
  Equivalent ICRF heliocentric cartesian coordinates (au, au/d):
   X= 9.781363708094483E-01  Y=-2.377942828764822E-01  Z=-1.040448782093900E-01
  VX= 1.501011538102481E-03 VY= 1.393070215815854E-02 VZ= 6.509326736836346E-03
Asteroid physical parameters (km, seconds, rotational period in hours):        
   GM= n.a.                RAD= n.a.               ROTPER= .16548              
   H= 24.93                G= .150                 B-V= n.a.                   
                           ALBEDO= n.a.            STYP= n.a.                  
*******************************************************************************
 Date__(UT)__HR:MN     R.A._________(ICRF)_________DEC
******************************************************
$$SOE
 2018-Aug-17 00:30  m  01 29 13.368213 +00 26 12.93301
 2018-Aug-17 00:31  m  01 29 13.404121 +00 26 12.97837
 2018-Aug-17 00:32  m  01 29 13.439907 +00 26 13.02373
 2018-Aug-17 00:33  m  01 29 13.475570 +00 26 13.06910
 2018-Aug-17 00:34  m  01 29 13.511111 +00 26 13.11446
 2018-Aug-17 00:35  m  01 29 13.546528 +00 26 13.15983
 2018-Aug-17 00:36  m  01 29 13.581822 +00 26 13.20519
 2018-Aug-17 00:37  m  01 29 13.616993 +00 26 13.25056
 2018-Aug-17 00:38  m  01 29 13.652039 +00 26 13.29593
 2018-Aug-17 00:39  m  01 29 13.686961 +00 26 13.34130
 2018-Aug-17 00:40  m  01 29 13.721759 +00 26 13.38666
 2018-Aug-17 00:41  m  01 29 13.756431 +00 26 13.43203
 2018-Aug-17 00:42  m  01 29 13.790978 +00 26 13.47740
 2018-Aug-17 00:43  m  01 29 13.825400 +00 26 13.52277
 2018-Aug-17 00:44  m  01 29 13.859696 +00 26 13.56815
 2018-Aug-17 00:45  m  01 29 13.893865 +00 26 13.61352
 2018-Aug-17 00:46  m  01 29 13.927908 +00 26 13.65889
 2018-Aug-17 00:47  m  01 29 13.961825 +00 26 13.70426
 2018-Aug-17 00:48  m  01 29 13.995615 +00 26 13.74963
 2018-Aug-17 00:49  m  01 29 14.029277 +00 26 13.79500
 2018-Aug-17 00:50  m  01 29 14.062811 +00 26 13.84037
 2018-Aug-17 00:51  m  01 29 14.096218 +00 26 13.88574
 2018-Aug-17 00:52  m  01 29 14.129497 +00 26 13.93111
 2018-Aug-17 00:53  m  01 29 14.162647 +00 26 13.97648
 2018-Aug-17 00:54  m  01 29 14.195669 +00 26 14.02185
 2018-Aug-17 00:55  m  01 29 14.228562 +00 26 14.06722
 2018-Aug-17 00:56  m  01 29 14.261325 +00 26 14.11259
 2018-Aug-17 00:57  m  01 29 14.293959 +00 26 14.15796
 2018-Aug-17 00:58  m  01 29 14.326464 +00 26 14.20332
 2018-Aug-17 00:59  m  01 29 14.358838 +00 26 14.24869
 2018-Aug-17 01:00  m  01 29 14.391082 +00 26 14.29406
 2018-Aug-17 01:01  m  01 29 14.423196 +00 26 14.33942
 2018-Aug-17 01:02  m  01 29 14.455179 +00 26 14.38478
 2018-Aug-17 01:03  m  01 29 14.487031 +00 26 14.43014
 2018-Aug-17 01:04  m  01 29 14.518751 +00 26 14.47550
 2018-Aug-17 01:05  m  01 29 14.550341 +00 26 14.52086
 2018-Aug-17 01:06  m  01 29 14.581798 +00 26 14.56622
 2018-Aug-17 01:07  m  01 29 14.613124 +00 26 14.61158
 2018-Aug-17 01:08  m  01 29 14.644317 +00 26 14.65693
 2018-Aug-17 01:09  m  01 29 14.675378 +00 26 14.70228
 2018-Aug-17 01:10  m  01 29 14.706306 +00 26 14.74763
 2018-Aug-17 01:11  m  01 29 14.737101 +00 26 14.79298
 2018-Aug-17 01:12  m  01 29 14.767764 +00 26 14.83833
 2018-Aug-17 01:13  m  01 29 14.798292 +00 26 14.88367
 2018-Aug-17 01:14  m  01 29 14.828688 +00 26 14.92902
 2018-Aug-17 01:15  m  01 29 14.858949 +00 26 14.97436
 2018-Aug-17 01:16  m  01 29 14.889077 +00 26 15.01970
 2018-Aug-17 01:17  m  01 29 14.919070 +00 26 15.06503
 2018-Aug-17 01:18  m  01 29 14.948929 +00 26 15.11037
 2018-Aug-17 01:19  m  01 29 14.978653 +00 26 15.15570
 2018-Aug-17 01:20  m  01 29 15.008242 +00 26 15.20103
 2018-Aug-17 01:21  m  01 29 15.037697 +00 26 15.24635
 2018-Aug-17 01:22  m  01 29 15.067016 +00 26 15.29168
 2018-Aug-17 01:23  m  01 29 15.096199 +00 26 15.33700
 2018-Aug-17 01:24  m  01 29 15.125247 +00 26 15.38231
 2018-Aug-17 01:25  m  01 29 15.154159 +00 26 15.42763
 2018-Aug-17 01:26  m  01 29 15.182936 +00 26 15.47294
 2018-Aug-17 01:27  m  01 29 15.211575 +00 26 15.51825
 2018-Aug-17 01:28  m  01 29 15.240079 +00 26 15.56355
 2018-Aug-17 01:29  m  01 29 15.268446 +00 26 15.60885
 2018-Aug-17 01:30  m  01 29 15.296676 +00 26 15.65415
 2018-Aug-17 01:31  m  01 29 15.324769 +00 26 15.69944
 2018-Aug-17 01:32  m  01 29 15.352725 +00 26 15.74473
 2018-Aug-17 01:33  m  01 29 15.380544 +00 26 15.79002
 2018-Aug-17 01:34  m  01 29 15.408225 +00 26 15.83531
 2018-Aug-17 01:35  m  01 29 15.435768 +00 26 15.88058
 2018-Aug-17 01:36  m  01 29 15.463174 +00 26 15.92586
 2018-Aug-17 01:37  m  01 29 15.490442 +00 26 15.97113
 2018-Aug-17 01:38  m  01 29 15.517572 +00 26 16.01640
 2018-Aug-17 01:39  m  01 29 15.544563 +00 26 16.06166
 2018-Aug-17 01:40  m  01 29 15.571416 +00 26 16.10692
 2018-Aug-17 01:41  m  01 29 15.598130 +00 26 16.15217
 2018-Aug-17 01:42  m  01 29 15.624706 +00 26 16.19742
 2018-Aug-17 01:43  m  01 29 15.651143 +00 26 16.24267
 2018-Aug-17 01:44  m  01 29 15.677440 +00 26 16.28791
 2018-Aug-17 01:45  m  01 29 15.703599 +00 26 16.33315
 2018-Aug-17 01:46  m  01 29 15.729618 +00 26 16.37838
 2018-Aug-17 01:47  m  01 29 15.755498 +00 26 16.42360
 2018-Aug-17 01:48  m  01 29 15.781238 +00 26 16.46883
 2018-Aug-17 01:49  m  01 29 15.806838 +00 26 16.51404
 2018-Aug-17 01:50  m  01 29 15.832299 +00 26 16.55925
 2018-Aug-17 01:51  m  01 29 15.857619 +00 26 16.60446
 2018-Aug-17 01:52  m  01 29 15.882800 +00 26 16.64966
 2018-Aug-17 01:53  m  01 29 15.907840 +00 26 16.69485
 2018-Aug-17 01:54  m  01 29 15.932740 +00 26 16.74004
 2018-Aug-17 01:55  m  01 29 15.957500 +00 26 16.78523
 2018-Aug-17 01:56  m  01 29 15.982118 +00 26 16.83041
 2018-Aug-17 01:57  m  01 29 16.006597 +00 26 16.87558
 2018-Aug-17 01:58  m  01 29 16.030934 +00 26 16.92075
 2018-Aug-17 01:59  m  01 29 16.055131 +00 26 16.96591
 2018-Aug-17 02:00  m  01 29 16.079186 +00 26 17.01106
 2018-Aug-17 02:01  m  01 29 16.103101 +00 26 17.05621
 2018-Aug-17 02:02  m  01 29 16.126874 +00 26 17.10135
 2018-Aug-17 02:03  m  01 29 16.150506 +00 26 17.14649
 2018-Aug-17 02:04  m  01 29 16.173996 +00 26 17.19162
 2018-Aug-17 02:05  m  01 29 16.197346 +00 26 17.23674
 2018-Aug-17 02:06  m  01 29 16.220553 +00 26 17.28186
 2018-Aug-17 02:07  m  01 29 16.243619 +00 26 17.32697
 2018-Aug-17 02:08  m  01 29 16.266543 +00 26 17.37207
 2018-Aug-17 02:09  m  01 29 16.289326 +00 26 17.41717
 2018-Aug-17 02:10  m  01 29 16.311966 +00 26 17.46226
 2018-Aug-17 02:11  m  01 29 16.334465 +00 26 17.50734
 2018-Aug-17 02:12  m  01 29 16.356821 +00 26 17.55242
 2018-Aug-17 02:13  m  01 29 16.379036 +00 26 17.59749
 2018-Aug-17 02:14  m  01 29 16.401108 +00 26 17.64255
 2018-Aug-17 02:15  m  01 29 16.423038 +00 26 17.68760
 2018-Aug-17 02:16  m  01 29 16.444826 +00 26 17.73265
 2018-Aug-17 02:17  m  01 29 16.466472 +00 26 17.77769
 2018-Aug-17 02:18  m  01 29 16.487975 +00 26 17.82272
 2018-Aug-17 02:19  m  01 29 16.509336 +00 26 17.86774
 2018-Aug-17 02:20  m  01 29 16.530554 +00 26 17.91276
 2018-Aug-17 02:21  m  01 29 16.551630 +00 26 17.95777
 2018-Aug-17 02:22  m  01 29 16.572563 +00 26 18.00277
 2018-Aug-17 02:23  r  01 29 16.593353 +00 26 18.04776
 2018-Aug-17 02:24  m  01 29 16.614001 +00 26 18.09275
 2018-Aug-17 02:25  m  01 29 16.634507 +00 26 18.13772
 2018-Aug-17 02:26  m  01 29 16.654869 +00 26 18.18269
 2018-Aug-17 02:27  m  01 29 16.675089 +00 26 18.22765
 2018-Aug-17 02:28  m  01 29 16.695166 +00 26 18.27260
 2018-Aug-17 02:29  m  01 29 16.715100 +00 26 18.31754
 2018-Aug-17 02:30  m  01 29 16.734891 +00 26 18.36248
 2018-Aug-17 02:31  m  01 29 16.754540 +00 26 18.40740
 2018-Aug-17 02:32  m  01 29 16.774046 +00 26 18.45232
